[{"OBJECT_NAME":"COSMOS 2251 DEB","OBJECT_ID":"1993-036AUZ","EPOCH":"2023-09-14T16:35:08.149056","MEAN_MOTION":14.33103253,"ECCENTRICITY":0.0023664,"INCLINATION":74.0349,"RA_OF_ASC_NODE":12.0745,"ARG_OF_PERICENTER":293.1311,"MEAN_ANOMALY":66.7347,"EPHEMERIS_TYPE":0,"CLASSIFICATION_TYPE":"U","NORAD_CAT_ID":35959,"ELEMENT_SET_NO":999,"REV_AT_EPOCH":73176,"BSTAR":0.0001822,"MEAN_MOTION_DOT":4.75e-6,"MEAN_MOTION_DDOT":0},{"OBJECT_NAME":"COSMOS 2251 DEB","OBJECT_ID":"1993-036AVB","EPOCH":"2023-09-13T03:01:51.439584","MEAN_MOTION":13.98506671,"ECCENTRICITY":0.0208686,"INCLINATION":73.93,"RA_OF_ASC_NODE":201.3457,"ARG_OF_PERICENTER":301.1197,"MEAN_ANOMALY":56.9609,"EPHEMERIS_TYPE":0,"CLASSIFICATION_TYPE":"U","NORAD_CAT_ID":35961,"ELEMENT_SET_NO":999,"REV_AT_EPOCH":51166,"BSTAR":0.0038471,"MEAN_MOTION_DOT":6.617e-5,"MEAN_MOTION_DDOT":0},{"OBJECT_NAME":"COSMOS 2251 DEB","OBJECT_ID":"1993-036AVC","EPOCH":"2023-09-09T11:40:28.947360","MEAN_MOTION":14.57061443,"ECCENTRICITY":0.0032241,"INCLINATION":74.0096,"RA_OF_ASC_NODE":301.1939,"ARG_OF_PERICENTER":205.284,"MEAN_ANOMALY":154.6748,"EPHEMERIS_TYPE":0,"CLASSIFICATION_TYPE":"U","NORAD_CAT_ID":35962,"ELEMENT_SET_NO":999,"REV_AT_EPOCH":53977,"BSTAR":0.0025204,"MEAN_MOTION_DOT":0.00011417,"MEAN_MOTION_DDOT":0},{"OBJECT_NAME":"COSMOS 2251 DEB","OBJECT_ID":"1993-036AVJ","EPOCH":"2023-09-14T03:30:54.389376","MEAN_MOTION":15.24615961,"ECCENTRICITY":0.0046007,"INCLINATION":73.6905,"RA_OF_ASC_NODE":178.0836,"ARG_OF_PERICENTER":212.1329,"MEAN_ANOMALY":147.7064,"EPHEMERIS_TYPE":0,"CLASSIFICATION_TYPE":"U","NORAD_CAT_ID":35968,"ELEMENT_SET_NO":999,"REV_AT_EPOCH":77853,"BSTAR":0.0042425,"MEAN_MOTION_DOT":0.00109399,"MEAN_MOTION_DDOT":0},{"OBJECT_NAME":"COSMOS 2251 DEB","OBJECT_ID":"1993-036AVL","EPOCH":"2023-09-15T02:37:45.187392","MEAN_MOTION":14.69718734,"ECCENTRICITY":0.0033514,"INCLINATION":74.0391,"RA_OF_ASC_NODE":25.739,"ARG_OF_PERICENTER":338.1985,"MEAN_ANOMALY":21.7757,"EPHEMERIS_TYPE":0,"CLASSIFICATION_TYPE":"U","NORAD_CAT_ID":35970,"ELEMENT_SET_NO":999,"REV_AT_EPOCH":74653,"BSTAR":0.0022117,"MEAN_MOTION_DOT":0.00013288,"MEAN_MOTION_DDOT":0},{"OBJECT_NAME":"COSMOS 2251 DEB","OBJECT_ID":"1993-036AVQ","EPOCH":"2023-09-11T23:25:15.601728","MEAN_MOTION":14.64144229,"ECCENTRICITY":0.0013092,"INCLINATION":74.0284,"RA_OF_ASC_NODE":126.4427,"ARG_OF_PERICENTER":85.0499,"MEAN_ANOMALY":275.2163,"EPHEMERIS_TYPE":0,"CLASSIFICATION_TYPE":"U","NORAD_CAT_ID":35974,"ELEMENT_SET_NO":999,"REV_AT_EPOCH":53983,"BSTAR":0.0021254,"MEAN_MOTION_DOT":0.00011177,"MEAN_MOTION_DDOT":0},{"OBJECT_NAME":"COSMOS 2251 DEB","OBJECT_ID":"1993-036AVR","EPOCH":"2023-09-15T15:00:51.083136","MEAN_MOTION":14.17112268,"ECCENTRICITY":0.0129375,"INCLINATION":74.057,"RA_OF_ASC_NODE":358.3179,"ARG_OF_PERICENTER":277.7594,"MEAN_ANOMALY":80.8875,"EPHEMERIS_TYPE":0,"CLASSIFICATION_TYPE":"U","NORAD_CAT_ID":35975,"ELEMENT_SET_NO":999,"REV_AT_EPOCH":73938,"BSTAR":0.0015547,"MEAN_MOTION_DOT":3.374e-5,"MEAN_MOTION_DDOT":0},{"OBJECT_NAME":"COSMOS 2251 DEB","OBJECT_ID":"1993-036AVS","EPOCH":"2023-09-10T16:08:32.491392","MEAN_MOTION":14.4040109,"ECCENTRICITY":0.0056562,"INCLINATION":74.0434,"RA_OF_ASC_NODE":12.1641,"ARG_OF_PERICENTER":287.6781,"MEAN_ANOMALY":71.8204,"EPHEMERIS_TYPE":0,"CLASSIFICATION_TYPE":"U","NORAD_CAT_ID":35976,"ELEMENT_SET_NO":999,"REV_AT_EPOCH":74708,"BSTAR":0.0012239,"MEAN_MOTION_DOT":3.935e-5,"MEAN_MOTION_DDOT":0},{"OBJECT_NAME":"COSMOS 2251 DEB","OBJECT_ID":"1993-036AVV","EPOCH":"2023-09-10T16:09:47.575584","MEAN_MOTION":14.60570895,"ECCENTRICITY":0.007613,"INCLINATION":74.0183,"RA_OF_ASC_NODE":31.8411,"ARG_OF_PERICENTER":10.8252,"MEAN_ANOMALY":2.3445,"EPHEMERIS_TYPE":0,"CLASSIFICATION_TYPE":"U","NORAD_CAT_ID":35979,"ELEMENT_SET_NO":999,"REV_AT_EPOCH":76546,"BSTAR":0.00074292,"MEAN_MOTION_DOT":3.731e-5,"MEAN_MOTION_DDOT":0},{"OBJECT_NAME":"COSMOS 2251 DEB","OBJECT_ID":"1993-036AVW","EPOCH":"2023-09-12T05:27:41.434560","MEAN_MOTION":14.44504257,"ECCENTRICITY":0.006992,"INCLINATION":73.925,"RA_OF_ASC_NODE":242.8421,"ARG_OF_PERICENTER":195.7744,"MEAN_ANOMALY":164.1236,"EPHEMERIS_TYPE":0,"CLASSIFICATION_TYPE":"U","NORAD_CAT_ID":35980,"ELEMENT_SET_NO":999,"REV_AT_EPOCH":73571,"BSTAR":0.0010849,"MEAN_MOTION_DOT":3.834e-5,"MEAN_MOTION_DDOT":0},{"OBJECT_NAME":"COSMOS 2251 DEB","OBJECT_ID":"1993-036AVY","EPOCH":"2023-09-15T13:48:26.269056","MEAN_MOTION":14.54931775,"ECCENTRICITY":0.007444,"INCLINATION":74.0576,"RA_OF_ASC_NODE":105.2678,"ARG_OF_PERICENTER":24.633,"MEAN_ANOMALY":335.8358,"EPHEMERIS_TYPE":0,"CLASSIFICATION_TYPE":"U","NORAD_CAT_ID":35982,"ELEMENT_SET_NO":999,"REV_AT_EPOCH":74220,"BSTAR":0.00055545,"MEAN_MOTION_DOT":2.45e-5,"MEAN_MOTION_DDOT":0},{"OBJECT_NAME":"COSMOS 2251 DEB","OBJECT_ID":"1993-036AWD","EPOCH":"2023-09-15T09:19:21.523584","MEAN_MOTION":14.34958164,"ECCENTRICITY":0.0056582,"INCLINATION":74.0032,"RA_OF_ASC_NODE":41.8258,"ARG_OF_PERICENTER":359.9647,"MEAN_ANOMALY":0.1491,"EPHEMERIS_TYPE":0,"CLASSIFICATION_TYPE":"U","NORAD_CAT_ID":35987,"ELEMENT_SET_NO":999,"REV_AT_EPOCH":49279,"BSTAR":0.0011281,"MEAN_MOTION_DOT":3.244e-5,"MEAN_MOTION_DDOT":0},{"OBJECT_NAME":"COSMOS 2251 DEB","OBJECT_ID":"1993-036AWF","EPOCH":"2023-09-15T14:27:23.235264","MEAN_MOTION":14.35298852,"ECCENTRICITY":0.0023826,"INCLINATION":74.0408,"RA_OF_ASC_NODE":347.9828,"ARG_OF_PERICENTER":273.715,"MEAN_ANOMALY":86.1277,"EPHEMERIS_TYPE":0,"CLASSIFICATION_TYPE":"U","NORAD_CAT_ID":35989,"ELEMENT_SET_NO":999,"REV_AT_EPOCH":75498,"BSTAR":0.00026093,"MEAN_MOTION_DOT":7.24e-6,"MEAN_MOTION_DDOT":0},{"OBJECT_NAME":"COSMOS 2251 DEB","OBJECT_ID":"1993-036AWK","EPOCH":"2023-09-10T22:33:03.119616","MEAN_MOTION":14.54896604,"ECCENTRICITY":0.0035089,"INCLINATION":74.0177,"RA_OF_ASC_NODE":106.9651,"ARG_OF_PERICENTER":137.387,"MEAN_ANOMALY":223.0025,"EPHEMERIS_TYPE":0,"CLASSIFICATION_TYPE":"U","NORAD_CAT_ID":35993,"ELEMENT_SET_NO":999,"REV_AT_EPOCH":48419,"BSTAR":0.00072649,"MEAN_MOTION_DOT":3.12e-5,"MEAN_MOTION_DDOT":0},{"OBJECT_NAME":"COSMOS 2251 DEB","OBJECT_ID":"1993-036AWN","EPOCH":"2023-09-12T22:16:29.362368","MEAN_MOTION":14.89075041,"ECCENTRICITY":0.0129145,"INCLINATION":74.0241,"RA_OF_ASC_NODE":331.7112,"ARG_OF_PERICENTER":278.8397,"MEAN_ANOMALY":79.8179,"EPHEMERIS_TYPE":0,"CLASSIFICATION_TYPE":"U","NORAD_CAT_ID":35996,"ELEMENT_SET_NO":999,"REV_AT_EPOCH":60017,"BSTAR":0.00067309,"MEAN_MOTION_DOT":7.384e-5,"MEAN_MOTION_DDOT":0},{"OBJECT_NAME":"COSMOS 2251 DEB","OBJECT_ID":"1993-036AWP","EPOCH":"2023-09-13T18:57:28.682784","MEAN_MOTION":14.43679942,"ECCENTRICITY":0.0017837,"INCLINATION":74.0458,"RA_OF_ASC_NODE":281.9713,"ARG_OF_PERICENTER":208.2925,"MEAN_ANOMALY":151.7265,"EPHEMERIS_TYPE":0,"CLASSIFICATION_TYPE":"U","NORAD_CAT_ID":35997,"ELEMENT_SET_NO":999,"REV_AT_EPOCH":73918,"BSTAR":0.00076553,"MEAN_MOTION_DOT":2.579e-5,"MEAN_MOTION_DDOT":0}]
