COSMOS 2251 DEB         
1 35959U 93036AUZ 23257.69106654  .00000475  00000+0  18220-3 0  9999
2 35959  74.0349  12.0745 0023664 293.1311  66.7347 14.33103253731762
COSMOS 2251 DEB         
1 35961U 93036AVB 23256.12628981  .00006617  00000+0  38471-2 0  9994
2 35961  73.9300 201.3457 0208686 301.1197  56.9609 13.98506671511662
COSMOS 2251 DEB         
1 35962U 93036AVC 23252.48644615  .00011417  00000+0  25204-2 0  9996
2 35962  74.0096 301.1939 0032241 205.2840 154.6748 14.57061443539773
COSMOS 2251 DEB         
1 35968U 93036AVJ 23257.14646284  .00109399  00000+0  42425-2 0  9995
2 35968  73.6905 178.0836 0046007 212.1329 147.7064 15.24615961778532
COSMOS 2251 DEB         
1 35970U 93036AVL 23258.10955078  .00013288  00000+0  22117-2 0  9996
2 35970  74.0391  25.7390 0033514 338.1985  21.7757 14.69718734746533
COSMOS 2251 DEB         
1 35974U 93036AVQ 23254.97587502  .00011177  00000+0  21254-2 0  9990
2 35974  74.0284 126.4427 0013092  85.0499 275.2163 14.64144229539832
COSMOS 2251 DEB         
1 35975U 93036AVR 23258.62559124  .00003374  00000+0  15547-2 0  9994
2 35975  74.0570 358.3179 0129375 277.7594  80.8875 14.17112268739387
COSMOS 2251 DEB         
1 35976U 93036AVS 23253.67259828  .00003935  00000+0  12239-2 0  9991
2 35976  74.0434  12.1641 0056562 287.6781  71.8204 14.40401090747083
COSMOS 2251 DEB         
1 35979U 93036AVV 23253.67346731  .00003731  00000+0  74292-3 0  9996
2 35979  74.0183  31.8411 0076130  10.8252   2.3445 14.60570895765462
COSMOS 2251 DEB         
1 35980U 93036AVW 23255.22756290  .00003834  00000+0  10849-2 0  9997
2 35980  73.9250 242.8421 0069920 195.7744 164.1236 14.44504257735711
COSMOS 2251 DEB         
1 35982U 93036AVY 23258.57530404  .00002450  00000+0  55545-3 0  9993
2 35982  74.0576 105.2678 0074440  24.6330 335.8358 14.54931775742200
COSMOS 2251 DEB         
1 35987U 93036AWD 23258.38844356  .00003244  00000+0  11281-2 0  9991
2 35987  74.0032  41.8258 0056582 359.9647   0.1491 14.34958164492798
COSMOS 2251 DEB         
1 35989U 93036AWF 23258.60235226  .00000724  00000+0  26093-3 0  9996
2 35989  74.0408 347.9828 0023826 273.7150  86.1277 14.35298852754987
COSMOS 2251 DEB         
1 35993U 93036AWK 23253.93961944  .00003120  00000+0  72649-3 0  9996
2 35993  74.0177 106.9651 0035089 137.3870 223.0025 14.54896604484196
COSMOS 2251 DEB         
1 35996U 93036AWN 23255.92811762  .00007384  00000+0  67309-3 0  9995
2 35996  74.0241 331.7112 0129145 278.8397  79.8179 14.89075041600170
COSMOS 2251 DEB         
1 35997U 93036AWP 23256.78991531  .00002579  00000+0  76553-3 0  9996
2 35997  74.0458 281.9713 0017837 208.2925 151.7265 14.43679942739182
